{"type": "FeatureCollection", "features": [ {"type": "Feature", "properties": {"norad_id": 66970, "name": "STARLINK-35703", "group": "last-30-days", "lat": -40.11974140435705, "lon": -10.596983575339163, "alt_km": 346.8911085215086, "timestamp": "2025-12-22T22:44:19.653040+00:00", "meta": {"OBJECT_NAME": "STARLINK-35703", "OBJECT_ID": "2025-288M", "EPOCH": "2025-12-22T20:00:01.999008", "MEAN_MOTION": 15.75390275, "ECCENTRICITY": 0.0001751, "INCLINATION": 43.0004, "RA_OF_ASC_NODE": 105.3667, "ARG_OF_PERICENTER": 288.6839, "MEAN_ANOMALY": 34.4563, "EPHEMERIS_TYPE": 0, "CLASSIFICATION_TYPE": "U", "NORAD_CAT_ID": 66970, "ELEMENT_SET_NO": 999, "REV_AT_EPOCH": 345, "BSTAR": -0.01001, "MEAN_MOTION_DOT": -0.0138758, "MEAN_MOTION_DDOT": 0}, "tle": {"line1": "1 66970U 25288M   25356.83335647 -.01387580  00000+0 -10010-1 0  9999", "line2": "2 66970  43.0004 105.3667 0001751 288.6839  34.4563 15.75390275  3458"}}, "geometry": {"type": "Point", "coordinates": [-10.596983575339163, -40.11974140435705]}}, {"type": "Feature", "properties": {"norad_id": 66971, "name": "STARLINK-35678", "group": "last-30-days", "lat": -34.275553931655786, "lon": -28.284649311056427, "alt_km": 346.69193503547467, "timestamp": "2025-12-22T22:44:19.653050+00:00", "meta": {"OBJECT_NAME": "STARLINK-35678", "OBJECT_ID": "2025-288N", "EPOCH": "2025-12-22T20:00:01.999008", "MEAN_MOTION": 15.75379903, "ECCENTRICITY": 0.0001629, "INCLINATION": 43.0006, "RA_OF_ASC_NODE": 105.4066, "ARG_OF_PERICENTER": 270.4189, "MEAN_ANOMALY": 37.4567, "EPHEMERIS_TYPE": 0, "CLASSIFICATION_TYPE": "U", "NORAD_CAT_ID": 66971, "ELEMENT_SET_NO": 999, "REV_AT_EPOCH": 345, "BSTAR": -0.010367, "MEAN_MOTION_DOT": -0.01430614, "MEAN_MOTION_DDOT": 0}, "tle": {"line1": "1 66971U 25288N   25356.83335647 -.01430614  00000+0 -10367-1 0  9992", "line2": "2 66971  43.0006 105.4066 0001629 270.4189  37.4567 15.75379903  3458"}}, "geometry": {"type": "Point", "coordinates": [-28.284649311056427, -34.275553931655786]}}, {"type": "Feature", "properties": {"norad_id": 66972, "name": "STARLINK-34846", "group": "last-30-days", "lat": -35.117894290214686, "lon": -26.29090922743865, "alt_km": 346.3826773049532, "timestamp": "2025-12-22T22:44:19.653060+00:00", "meta": {"OBJECT_NAME": "STARLINK-34846", "OBJECT_ID": "2025-288P", "EPOCH": "2025-12-22T20:00:01.999008", "MEAN_MOTION": 15.75427931, "ECCENTRICITY": 0.0002024, "INCLINATION": 43.0006, "RA_OF_ASC_NODE": 105.4017, "ARG_OF_PERICENTER": 272.2177, "MEAN_ANOMALY": 37.4897, "EPHEMERIS_TYPE": 0, "CLASSIFICATION_TYPE": "U", "NORAD_CAT_ID": 66972, "ELEMENT_SET_NO": 999, "REV_AT_EPOCH": 345, "BSTAR": -0.010342, "MEAN_MOTION_DOT": -0.01430555, "MEAN_MOTION_DDOT": 0}, "tle": {"line1": "1 66972U 25288P   25356.83335647 -.01430555  00000+0 -10342-1 0  9990", "line2": "2 66972  43.0006 105.4017 0002024 272.2177  37.4897 15.75427931  3453"}}, "geometry": {"type": "Point", "coordinates": [-26.29090922743865, -35.117894290214686]}}, {"type": "Feature", "properties": {"norad_id": 66973, "name": "STARLINK-35778", "group": "last-30-days", "lat": -35.95428764146164, "lon": -24.18405954706493, "alt_km": 346.2609003319567, "timestamp": "2025-12-22T22:44:19.653071+00:00", "meta": {"OBJECT_NAME": "STARLINK-35778", "OBJECT_ID": "2025-288Q", "EPOCH": "2025-12-22T20:00:01.999008", "MEAN_MOTION": 15.75431592, "ECCENTRICITY": 0.0002202, "INCLINATION": 43.0006, "RA_OF_ASC_NODE": 105.3972, "ARG_OF_PERICENTER": 270.2232, "MEAN_ANOMALY": 41.3959, "EPHEMERIS_TYPE": 0, "CLASSIFICATION_TYPE": "U", "NORAD_CAT_ID": 66973, "ELEMENT_SET_NO": 999, "REV_AT_EPOCH": 345, "BSTAR": -0.010357, "MEAN_MOTION_DOT": -0.01432697, "MEAN_MOTION_DDOT": 0}, "tle": {"line1": "1 66973U 25288Q   25356.83335647 -.01432697  00000+0 -10357-1 0  9996", "line2": "2 66973  43.0006 105.3972 0002202 270.2232  41.3959 15.75431592  3452"}}, "geometry": {"type": "Point", "coordinates": [-24.18405954706493, -35.95428764146164]}}, {"type": "Feature", "properties": {"norad_id": 66974, "name": "STARLINK-35780", "group": "last-30-days", "lat": -36.75344918434958, "lon": -22.032512939742507, "alt_km": 346.7035939478001, "timestamp": "2025-12-22T22:44:19.653081+00:00", "meta": {"OBJECT_NAME": "STARLINK-35780", "OBJECT_ID": "2025-288R", "EPOCH": "2025-12-22T20:00:01.999008", "MEAN_MOTION": 15.75417196, "ECCENTRICITY": 0.0001501, "INCLINATION": 43.0008, "RA_OF_ASC_NODE": 105.3923, "ARG_OF_PERICENTER": 269.6997, "MEAN_ANOMALY": 43.8334, "EPHEMERIS_TYPE": 0, "CLASSIFICATION_TYPE": "U", "NORAD_CAT_ID": 66974, "ELEMENT_SET_NO": 999, "REV_AT_EPOCH": 345, "BSTAR": -0.010172, "MEAN_MOTION_DOT": -0.01408847, "MEAN_MOTION_DDOT": 0}, "tle": {"line1": "1 66974U 25288R   25356.83335647 -.01408847  00000+0 -10172-1 0  9992", "line2": "2 66974  43.0008 105.3923 0001501 269.6997  43.8334 15.75417196  3450"}}, "geometry": {"type": "Point", "coordinates": [-22.032512939742507, -36.75344918434958]}}, {"type": "Feature", "properties": {"norad_id": 66975, "name": "STARLINK-35777", "group": "last-30-days", "lat": -38.23401351832645, "lon": -17.584683168569914, "alt_km": 346.5813400983752, "timestamp": "2025-12-22T22:44:19.653093+00:00", "meta": {"OBJECT_NAME": "STARLINK-35777", "OBJECT_ID": "2025-288S", "EPOCH": "2025-12-22T20:00:01.999008", "MEAN_MOTION": 15.75411913, "ECCENTRICITY": 0.0001871, "INCLINATION": 43.0005, "RA_OF_ASC_NODE": 105.3818, "ARG_OF_PERICENTER": 274.0539, "MEAN_ANOMALY": 43.3234, "EPHEMERIS_TYPE": 0, "CLASSIFICATION_TYPE": "U", "NORAD_CAT_ID": 66975, "ELEMENT_SET_NO": 999, "REV_AT_EPOCH": 345, "BSTAR": -0.010198, "MEAN_MOTION_DOT": -0.01411882, "MEAN_MOTION_DDOT": 0}, "tle": {"line1": "1 66975U 25288S   25356.83335647 -.01411882  00000+0 -10198-1 0  9994", "line2": "2 66975  43.0005 105.3818 0001871 274.0539  43.3234 15.75411913  3458"}}, "geometry": {"type": "Point", "coordinates": [-17.584683168569914, -38.23401351832645]}}, {"type": "Feature", "properties": {"norad_id": 66976, "name": "STARLINK-35772", "group": "last-30-days", "lat": -24.902700523832078, "lon": 75.5141146100923, "alt_km": 404.76130046226535, "timestamp": "2025-12-22T22:44:19.653104+00:00", "meta": {"OBJECT_NAME": "STARLINK-35772", "OBJECT_ID": "2025-288T", "EPOCH": "2025-12-22T20:00:01.999008", "MEAN_MOTION": 15.55221357, "ECCENTRICITY": 0.000177, "INCLINATION": 43.0007, "RA_OF_ASC_NODE": 106.0659, "ARG_OF_PERICENTER": 283.9398, "MEAN_ANOMALY": 118.5442, "EPHEMERIS_TYPE": 0, "CLASSIFICATION_TYPE": "U", "NORAD_CAT_ID": 66976, "ELEMENT_SET_NO": 999, "REV_AT_EPOCH": 345, "BSTAR": -0.038977, "MEAN_MOTION_DOT": -0.02368213, "MEAN_MOTION_DDOT": 0}, "tle": {"line1": "1 66976U 25288T   25356.83335647 -.02368213  00000+0 -38977-1 0  9990", "line2": "2 66976  43.0007 106.0659 0001770 283.9398 118.5442 15.55221357  3457"}}, "geometry": {"type": "Point", "coordinates": [75.5141146100923, -24.902700523832078]}}, {"type": "Feature", "properties": {"norad_id": 66977, "name": "STARLINK-35770", "group": "last-30-days", "lat": -38.90748883309723, "lon": -15.302024886302185, "alt_km": 346.82652158162546, "timestamp": "2025-12-22T22:44:19.653118+00:00", "meta": {"OBJECT_NAME": "STARLINK-35770", "OBJECT_ID": "2025-288U", "EPOCH": "2025-12-22T20:00:01.999008", "MEAN_MOTION": 15.75411998, "ECCENTRICITY": 0.0001563, "INCLINATION": 43.0006, "RA_OF_ASC_NODE": 105.3776, "ARG_OF_PERICENTER": 279.3323, "MEAN_ANOMALY": 39.9573, "EPHEMERIS_TYPE": 0, "CLASSIFICATION_TYPE": "U", "NORAD_CAT_ID": 66977, "ELEMENT_SET_NO": 999, "REV_AT_EPOCH": 345, "BSTAR": -0.010171, "MEAN_MOTION_DOT": -0.01408396, "MEAN_MOTION_DDOT": 0}, "tle": {"line1": "1 66977U 25288U   25356.83335647 -.01408396  00000+0 -10171-1 0  9993", "line2": "2 66977  43.0006 105.3776 0001563 279.3323  39.9573 15.75411998  3451"}}, "geometry": {"type": "Point", "coordinates": [-15.302024886302185, -38.90748883309723]}}, {"type": "Feature", "properties": {"norad_id": 66978, "name": "STARLINK-35787", "group": "last-30-days", "lat": -40.664978814993326, "lon": -8.126195501294225, "alt_km": 346.67960621051134, "timestamp": "2025-12-22T22:44:19.653128+00:00", "meta": {"OBJECT_NAME": "STARLINK-35787", "OBJECT_ID": "2025-288V", "EPOCH": "2025-12-22T20:00:01.999008", "MEAN_MOTION": 15.75342146, "ECCENTRICITY": 0.0001881, "INCLINATION": 43.0008, "RA_OF_ASC_NODE": 105.3623, "ARG_OF_PERICENTER": 261.943, "MEAN_ANOMALY": 63.1712, "EPHEMERIS_TYPE": 0, "CLASSIFICATION_TYPE": "U", "NORAD_CAT_ID": 66978, "ELEMENT_SET_NO": 999, "REV_AT_EPOCH": 345, "BSTAR": -0.0097797, "MEAN_MOTION_DOT": -0.01356616, "MEAN_MOTION_DDOT": 0}, "tle": {"line1": "1 66978U 25288V   25356.83335647 -.01356616  00000+0 -97797-2 0  9991", "line2": "2 66978  43.0008 105.3623 0001881 261.9430  63.1712 15.75342146  3456"}}, "geometry": {"type": "Point", "coordinates": [-8.126195501294225, -40.664978814993326]}}, {"type": "Feature", "properties": {"norad_id": 66979, "name": "STARLINK-36107", "group": "last-30-days", "lat": -41.132243977704064, "lon": -5.74622050083952, "alt_km": 346.7383430247437, "timestamp": "2025-12-22T22:44:19.653138+00:00", "meta": {"OBJECT_NAME": "STARLINK-36107", "OBJECT_ID": "2025-288W", "EPOCH": "2025-12-22T20:00:01.999008", "MEAN_MOTION": 15.75400536, "ECCENTRICITY": 0.0001817, "INCLINATION": 43.0007, "RA_OF_ASC_NODE": 105.3579, "ARG_OF_PERICENTER": 281.4528, "MEAN_ANOMALY": 45.5106, "EPHEMERIS_TYPE": 0, "CLASSIFICATION_TYPE": "U", "NORAD_CAT_ID": 66979, "ELEMENT_SET_NO": 999, "REV_AT_EPOCH": 345, "BSTAR": -0.010062, "MEAN_MOTION_DOT": -0.0139453, "MEAN_MOTION_DDOT": 0}, "tle": {"line1": "1 66979U 25288W   25356.83335647 -.01394530  00000+0 -10062-1 0  9998", "line2": "2 66979  43.0007 105.3579 0001817 281.4528  45.5106 15.75400536  3459"}}, "geometry": {"type": "Point", "coordinates": [-5.74622050083952, -41.132243977704064]}}]}